IONOSFERA-M 2           
1 61736U 24199B   26185.87983328  .00000089  00000+0  59452-4 0  9993
2 61736  98.7149  58.7739 0000352  62.1825 297.9388 14.22761151133346
PRSC-EO1                
1 62725U 25012A   26185.92759369  .00012182  00000+0  60705-3 0  9998
2 62725  97.4217 258.0406 0005992 180.6843 179.4384 15.17686424 80888
BIOMASS                 
1 63772U 25090A   26184.94542089  .00001237  00000+0  22742-3 0  9995
2 63772  98.0747  12.0140 0001428  85.8920 274.2447 14.67363795 63142
GOSAT-GW (IBUKI GW)     
1 64694U 25141A   26185.91732685  .00000892  00000+0  16565-3 0  9999
2 64694  98.0566 122.9460 0001482  87.9469 272.1905 14.67551236 54440
IONOSFERA-M 3           
1 64876U 25155A   26185.91337745  .00000074  00000+0  53440-4 0  9990
2 64876  98.6034 147.3729 0001928 127.9619 232.1733 14.21489586 48923
IONOSFERA-M 4           
1 64877U 25155B   26185.94818892  .00000087  00000+0  59248-4 0  9997
2 64877  98.6039 147.3240 0001623 109.5756 250.5597 14.21492040 48928
MICROCARB               
1 64899U 25156A   26185.68082685  .00000847  00000+0  13978-3 0  9999
2 64899  98.0074 262.5304 0016793 204.6785 155.3621 14.72877816 50544
CO3D 3                  
1 64900U 25156B   26185.69649570  .00008145  00000+0  37879-3 0  9990
2 64900  97.4326 264.1379 0001845 107.8204 252.3233 15.20218208 52190
CO3D 4                  
1 64901U 25156C   26185.69664133  .00001951  00000+0  93209-4 0  9991
2 64901  97.4336 264.1381 0000922 176.2100 183.9142 15.20210069 52190
CO3D 2                  
1 64902U 25156D   26185.66330380  .00006923  00000+0  32256-3 0  9991
2 64902  97.4331 264.0038 0001424  92.2377 267.9021 15.20208589 52187
CO3D 1                  
1 64903U 25156E   26185.66345705  .00006243  00000+0  29117-3 0  9996
2 64903  97.4328 264.0039 0001450 103.2236 256.9161 15.20212086 52181
PRSC-S1                 
1 65055U 25164A   26185.89823494  .00004297  00000+0  29680-3 0  9997
2 65055  41.1289 188.0529 0005144 122.9915 237.1394 15.06581919 51105
SENTINEL-6B             
1 66514U 25264A   26185.73099325 -.00000035  00000+0  11457-3 0  9990
2 66514  66.0414  98.7411 0007916 268.9242  91.0867 12.80930074 29412
CAS500-3                
1 66655U 25274F   26185.76235019  .00001914  00000+0  21237-3 0  9995
2 66655  97.7441 113.4137 0006808  65.3630 294.8296 14.88367985 32764
CSG-3                   
1 67304U 26001A   26185.95428813  .00000627  00000+0  85287-4 0  9999
2 67304  97.8893   9.2990 0001459  91.5862 268.5518 14.82147898 27090
PRSC-E03                
1 68835U 26092A   26185.88324999  .00004628  00000+0  31209-3 0  9990
2 68835  38.0022 345.3246 0003693 183.2801 176.7937 15.06772019 10625
CAS500-2                
1 69013U 26100AK  26185.45804681  .00009144  00000+0  41725-3 0  9995
2 69013  97.3880  82.9905 0008716 335.8740  24.2086 15.20803068  9432
